{"type": "FeatureCollection", "features": [ {"type": "Feature", "properties": {"norad_id": 41469, "name": "IRNSS-1G", "group": "gnss", "lat": -2.2986001054471688, "lon": -49.70073221723006, "alt_km": 35791.162266306375, "timestamp": "2025-12-24T05:51:19.851834+00:00", "meta": {"OBJECT_NAME": "IRNSS-1G", "OBJECT_ID": "2016-027A", "EPOCH": "2025-12-23T18:53:03.734592", "MEAN_MOTION": 1.00274617, "ECCENTRICITY": 0.00026577, "INCLINATION": 4.7616, "RA_OF_ASC_NODE": 101.8149, "ARG_OF_PERICENTER": 327.6838, "MEAN_ANOMALY": 75.8876, "EPHEMERIS_TYPE": 0, "CLASSIFICATION_TYPE": "U", "NORAD_CAT_ID": 41469, "ELEMENT_SET_NO": 999, "REV_AT_EPOCH": 3542, "BSTAR": 0, "MEAN_MOTION_DOT": -3.15e-06, "MEAN_MOTION_DDOT": 0}, "tle": {"line1": "1 41469U 16027A   25357.78684878 -.00000315  00000+0  00000+0 0  9996", "line2": "2 41469   4.7616 101.8149 0002657 327.6838  75.8876  1.00274617 35424"}}, "geometry": {"type": "Point", "coordinates": [-49.70073221723006, -2.2986001054471688]}}, {"type": "Feature", "properties": {"norad_id": 41549, "name": "GSAT0211 (GALILEO 14)", "group": "gnss", "lat": 21.72674789632648, "lon": 30.40556242935932, "alt_km": 23228.307462592486, "timestamp": "2025-12-24T05:51:19.851845+00:00", "meta": {"OBJECT_NAME": "GSAT0211 (GALILEO 14)", "OBJECT_ID": "2016-030A", "EPOCH": "2025-12-22T05:38:05.943264", "MEAN_MOTION": 1.70473275, "ECCENTRICITY": 0.00040882, "INCLINATION": 55.1491, "RA_OF_ASC_NODE": 226.562, "ARG_OF_PERICENTER": 17.521, "MEAN_ANOMALY": 342.5988, "EPHEMERIS_TYPE": 0, "CLASSIFICATION_TYPE": "U", "NORAD_CAT_ID": 41549, "ELEMENT_SET_NO": 999, "REV_AT_EPOCH": 5965, "BSTAR": 0, "MEAN_MOTION_DOT": 7.3e-07, "MEAN_MOTION_DDOT": 0}, "tle": {"line1": "1 41549U 16030A   25356.23479101  .00000073  00000+0  00000+0 0  9999", "line2": "2 41549  55.1491 226.5620 0004088  17.5210 342.5988  1.70473275 59659"}}, "geometry": {"type": "Point", "coordinates": [30.40556242935932, 21.72674789632648]}}, {"type": "Feature", "properties": {"norad_id": 41550, "name": "GSAT0210 (GALILEO 13)", "group": "gnss", "lat": -4.003935424520656, "lon": -136.27455620874127, "alt_km": 23224.66451838562, "timestamp": "2025-12-24T05:51:19.851857+00:00", "meta": {"OBJECT_NAME": "GSAT0210 (GALILEO 13)", "OBJECT_ID": "2016-030B", "EPOCH": "2025-12-23T01:53:26.064096", "MEAN_MOTION": 1.704734, "ECCENTRICITY": 5.527e-05, "INCLINATION": 55.1484, "RA_OF_ASC_NODE": 226.5368, "ARG_OF_PERICENTER": 180.205, "MEAN_ANOMALY": 179.8969, "EPHEMERIS_TYPE": 0, "CLASSIFICATION_TYPE": "U", "NORAD_CAT_ID": 41550, "ELEMENT_SET_NO": 999, "REV_AT_EPOCH": 5966, "BSTAR": 0, "MEAN_MOTION_DOT": 7.3e-07, "MEAN_MOTION_DDOT": 0}, "tle": {"line1": "1 41550U 16030B   25357.07877389  .00000073  00000+0  00000+0 0  9994", "line2": "2 41550  55.1484 226.5368 0000552 180.2050 179.8969  1.70473400 59665"}}, "geometry": {"type": "Point", "coordinates": [-136.27455620874127, -4.003935424520656]}}, {"type": "Feature", "properties": {"norad_id": 41586, "name": "BEIDOU-2 G7 (C03)", "group": "gnss", "lat": -1.2462545323813803, "lon": -68.76669686843525, "alt_km": 35803.32210902186, "timestamp": "2025-12-24T05:51:19.851870+00:00", "meta": {"OBJECT_NAME": "BEIDOU-2 G7 (C03)", "OBJECT_ID": "2016-037A", "EPOCH": "2025-12-23T22:13:07.225248", "MEAN_MOTION": 1.00269519, "ECCENTRICITY": 0.00052072, "INCLINATION": 1.7825, "RA_OF_ASC_NODE": 67.8843, "ARG_OF_PERICENTER": 1.2738, "MEAN_ANOMALY": 107.2702, "EPHEMERIS_TYPE": 0, "CLASSIFICATION_TYPE": "U", "NORAD_CAT_ID": 41586, "ELEMENT_SET_NO": 999, "REV_AT_EPOCH": 513, "BSTAR": 0, "MEAN_MOTION_DOT": -3.33e-06, "MEAN_MOTION_DDOT": 0}, "tle": {"line1": "1 41586U 16037A   25357.92577807 -.00000333  00000+0  00000+0 0  9996", "line2": "2 41586   1.7825  67.8843 0005207   1.2738 107.2702  1.00269519  5131"}}, "geometry": {"type": "Point", "coordinates": [-68.76669686843525, -1.2462545323813803]}}, {"type": "Feature", "properties": {"norad_id": 41589, "name": "EUTELSAT 117 WEST B (WAAS/PRN 131)", "group": "gnss", "lat": -0.006057724791207111, "lon": 63.83401901444495, "alt_km": 35787.35559116184, "timestamp": "2025-12-24T05:51:19.851882+00:00", "meta": {"OBJECT_NAME": "EUTELSAT 117 WEST B (WAAS/PRN 131)", "OBJECT_ID": "2016-038B", "EPOCH": "2025-12-23T11:38:38.460768", "MEAN_MOTION": 1.00269065, "ECCENTRICITY": 2.68e-05, "INCLINATION": 0.0101, "RA_OF_ASC_NODE": 152.0489, "ARG_OF_PERICENTER": 153.5082, "MEAN_ANOMALY": 204.3674, "EPHEMERIS_TYPE": 0, "CLASSIFICATION_TYPE": "U", "NORAD_CAT_ID": 41589, "ELEMENT_SET_NO": 999, "REV_AT_EPOCH": 3490, "BSTAR": 0, "MEAN_MOTION_DOT": 1e-07, "MEAN_MOTION_DDOT": 0}, "tle": {"line1": "1 41589U 16038B   25357.48516737  .00000010  00000+0  00000+0 0  9997", "line2": "2 41589   0.0101 152.0489 0000268 153.5082 204.3674  1.00269065 34901"}}, "geometry": {"type": "Point", "coordinates": [63.83401901444495, -0.006057724791207111]}}, {"type": "Feature", "properties": {"norad_id": 41859, "name": "GSAT0207 (GALILEO 15)", "group": "gnss", "lat": -3.6068427900826276, "lon": -71.5768592355598, "alt_km": 23227.809705677453, "timestamp": "2025-12-24T05:51:19.851895+00:00", "meta": {"OBJECT_NAME": "GSAT0207 (GALILEO 15)", "OBJECT_ID": "2016-069A", "EPOCH": "2025-12-22T04:24:39.710016", "MEAN_MOTION": 1.70474442, "ECCENTRICITY": 0.00024396, "INCLINATION": 55.3874, "RA_OF_ASC_NODE": 105.9888, "ARG_OF_PERICENTER": 317.4324, "MEAN_ANOMALY": 42.5257, "EPHEMERIS_TYPE": 0, "CLASSIFICATION_TYPE": "U", "NORAD_CAT_ID": 41859, "ELEMENT_SET_NO": 999, "REV_AT_EPOCH": 5638, "BSTAR": 0, "MEAN_MOTION_DOT": 6e-08, "MEAN_MOTION_DDOT": 0}, "tle": {"line1": "1 41859U 16069A   25356.18379294  .00000006  00000+0  00000+0 0  9997", "line2": "2 41859  55.3874 105.9888 0002439 317.4324  42.5257  1.70474442 56382"}}, "geometry": {"type": "Point", "coordinates": [-71.5768592355598, -3.6068427900826276]}}, {"type": "Feature", "properties": {"norad_id": 41860, "name": "GSAT0212 (GALILEO 16)", "group": "gnss", "lat": -55.185850397845726, "lon": 23.30169585789402, "alt_km": 23229.47324485536, "timestamp": "2025-12-24T05:51:19.851906+00:00", "meta": {"OBJECT_NAME": "GSAT0212 (GALILEO 16)", "OBJECT_ID": "2016-069B", "EPOCH": "2025-12-23T19:07:58.352160", "MEAN_MOTION": 1.7047463, "ECCENTRICITY": 0.00020402, "INCLINATION": 55.386, "RA_OF_ASC_NODE": 105.9395, "ARG_OF_PERICENTER": 18.1748, "MEAN_ANOMALY": 341.8198, "EPHEMERIS_TYPE": 0, "CLASSIFICATION_TYPE": "U", "NORAD_CAT_ID": 41860, "ELEMENT_SET_NO": 999, "REV_AT_EPOCH": 5666, "BSTAR": 0, "MEAN_MOTION_DOT": 1.3e-07, "MEAN_MOTION_DDOT": 0}, "tle": {"line1": "1 41860U 16069B   25357.79720315  .00000013  00000+0  00000+0 0  9999", "line2": "2 41860  55.3860 105.9395 0002040  18.1748 341.8198  1.70474630 56664"}}, "geometry": {"type": "Point", "coordinates": [23.30169585789402, -55.185850397845726]}}, {"type": "Feature", "properties": {"norad_id": 41861, "name": "GSAT0213 (GALILEO 17)", "group": "gnss", "lat": 38.15600184279816, "lon": 138.7399508709586, "alt_km": 23222.22853288624, "timestamp": "2025-12-24T05:51:19.851917+00:00", "meta": {"OBJECT_NAME": "GSAT0213 (GALILEO 17)", "OBJECT_ID": "2016-069C", "EPOCH": "2025-12-21T19:38:29.842080", "MEAN_MOTION": 1.70474953, "ECCENTRICITY": 0.00027355, "INCLINATION": 55.3872, "RA_OF_ASC_NODE": 106.002, "ARG_OF_PERICENTER": 282.3014, "MEAN_ANOMALY": 77.6427, "EPHEMERIS_TYPE": 0, "CLASSIFICATION_TYPE": "U", "NORAD_CAT_ID": 41861, "ELEMENT_SET_NO": 999, "REV_AT_EPOCH": 5649, "BSTAR": 0, "MEAN_MOTION_DOT": 4e-08, "MEAN_MOTION_DDOT": 0}, "tle": {"line1": "1 41861U 16069C   25355.81840095  .00000004  00000+0  00000+0 0  9999", "line2": "2 41861  55.3872 106.0020 0002735 282.3014  77.6427  1.70474953 56495"}}, "geometry": {"type": "Point", "coordinates": [138.7399508709586, 38.15600184279816]}}, {"type": "Feature", "properties": {"norad_id": 41862, "name": "GSAT0214 (GALILEO 18)", "group": "gnss", "lat": -32.67945880619624, "lon": 79.67185788452014, "alt_km": 23222.073200151754, "timestamp": "2025-12-24T05:51:19.851930+00:00", "meta": {"OBJECT_NAME": "GSAT0214 (GALILEO 18)", "OBJECT_ID": "2016-069D", "EPOCH": "2025-12-21T09:04:04.029024", "MEAN_MOTION": 1.70474854, "ECCENTRICITY": 0.00016223, "INCLINATION": 55.385, "RA_OF_ASC_NODE": 106.0069, "ARG_OF_PERICENTER": 287.8422, "MEAN_ANOMALY": 72.112, "EPHEMERIS_TYPE": 0, "CLASSIFICATION_TYPE": "U", "NORAD_CAT_ID": 41862, "ELEMENT_SET_NO": 999, "REV_AT_EPOCH": 5661, "BSTAR": 0, "MEAN_MOTION_DOT": 2e-08, "MEAN_MOTION_DDOT": 0}, "tle": {"line1": "1 41862U 16069D   25355.37782441  .00000002  00000+0  00000+0 0  9999", "line2": "2 41862  55.3850 106.0069 0001622 287.8422  72.1120  1.70474854 56616"}}, "geometry": {"type": "Point", "coordinates": [79.67185788452014, -32.67945880619624]}}, {"type": "Feature", "properties": {"norad_id": 42709, "name": "SES-15 (WAAS/PRN 133)", "group": "gnss", "lat": 0.03453034721589469, "lon": 51.69621004930007, "alt_km": 35787.55048997808, "timestamp": "2025-12-24T05:51:19.851941+00:00", "meta": {"OBJECT_NAME": "SES-15 (WAAS/PRN 133)", "OBJECT_ID": "2017-026A", "EPOCH": "2025-12-23T15:56:35.633184", "MEAN_MOTION": 1.00266715, "ECCENTRICITY": 1.317e-05, "INCLINATION": 0.0207, "RA_OF_ASC_NODE": 333.8243, "ARG_OF_PERICENTER": 338.0237, "MEAN_ANOMALY": 250.608, "EPHEMERIS_TYPE": 0, "CLASSIFICATION_TYPE": "U", "NORAD_CAT_ID": 42709, "ELEMENT_SET_NO": 999, "REV_AT_EPOCH": 567, "BSTAR": 0, "MEAN_MOTION_DOT": 8.1e-07, "MEAN_MOTION_DDOT": 0}, "tle": {"line1": "1 42709U 17026A   25357.66430131  .00000081  00000+0  00000+0 0  9991", "line2": "2 42709   0.0207 333.8243 0000131 338.0237 250.6080  1.00266715  5677"}}, "geometry": {"type": "Point", "coordinates": [51.69621004930007, 0.03453034721589469]}}]}